CTC2_L_00080001-01
1 10000U 25446GU  26075.70041667  .00000000  00000+0  00000-0 0  9992
2 10000  85.0000   0.0000 0000000   0.0000   0.0000 15.28598846    13
CTC2_L_00080001-02
1 10001U 22915LK  26075.70041667  .00000000  00000+0  00000-0 0  9991
2 10001  85.0000   0.0000 0000000   0.0000  90.0000 15.28598846    13
CTC2_L_00080001-03
1 10002U 25965NU  26075.70041667  .00000000  00000+0  00000-0 0  9990
2 10002  85.0000   0.0000 0000000   0.0000 180.0000 15.28598846    14
CTC2_L_00080001-04
1 10003U 24514YI  26075.70041667  .00000000  00000+0  00000-0 0  9990
2 10003  85.0000   0.0000 0000000   0.0000 270.0000 15.28598846    15
CTC2_L_00080002-01
1 10004U 25434LZ  26075.70041667  .00000000  00000+0  00000-0 0  9993
2 10004  85.0000  12.0000 0000000   0.0000  12.0000 15.28598846    13
CTC2_L_00080002-02
1 10005U 25693XW  26075.70041667  .00000000  00000+0  00000-0 0  9991
2 10005  85.0000  12.0000 0000000   0.0000 102.0000 15.28598846    14
CTC2_L_00080002-03
1 10006U 25137HX  26075.70041667  .00000000  00000+0  00000-0 0  9995
2 10006  85.0000  12.0000 0000000   0.0000 192.0000 15.28598846    14
CTC2_L_00080002-04
1 10007U 23216E   26075.70041667  .00000000  00000+0  00000-0 0  9992
2 10007  85.0000  12.0000 0000000   0.0000 282.0000 15.28598846    15
CTC2_L_00080003-01
1 10008U 26416DH  26075.70041667  .00000000  00000+0  00000-0 0  9998
2 10008  85.0000  24.0000 0000000   0.0000  24.0000 15.28598846    13
CTC2_L_00080003-02
1 10009U 24011EV  26075.70041667  .00000000  00000+0  00000-0 0  9998
2 10009  85.0000  24.0000 0000000   0.0000 114.0000 15.28598846    14
CTC2_L_00080003-03
1 10010U 23458TG  26075.70041667  .00000000  00000+0  00000-0 0  9994
2 10010  85.0000  24.0000 0000000   0.0000 204.0000 15.28598846    16
CTC2_L_00080003-04
1 10011U 23793SA  26075.70041667  .00000000  00000+0  00000-0 0  9997
2 10011  85.0000  24.0000 0000000   0.0000 294.0000 15.28598846    16
CTC2_L_00080004-01
1 10012U 25043DN  26075.70041667  .00000000  00000+0  00000-0 0  9998
2 10012  85.0000  36.0000 0000000   0.0000  36.0000 15.28598846    14
CTC2_L_00080004-02
1 10013U 22940JM  26075.70041667  .00000000  00000+0  00000-0 0  9992
2 10013  85.0000  36.0000 0000000   0.0000 126.0000 15.28598846    15
CTC2_L_00080004-03
1 10014U 23949CW  26075.70041667  .00000000  00000+0  00000-0 0  9993
2 10014  85.0000  36.0000 0000000   0.0000 216.0000 15.28598846    16
CTC2_L_00080004-04
1 10015U 23429SF  26075.70041667  .00000000  00000+0  00000-0 0  9997
2 10015  85.0000  36.0000 0000000   0.0000 306.0000 15.28598846    17
CTC2_L_00080005-01
1 10016U 22833NC  26075.70041667  .00000000  00000+0  00000-0 0  9996
2 10016  85.0000  48.0000 0000000   0.0000  48.0000 15.28598846    14
CTC2_L_00080005-02
1 10017U 25986TL  26075.70041667  .00000000  00000+0  00000-0 0  9999
2 10017  85.0000  48.0000 0000000   0.0000 138.0000 15.28598846    15
CTC2_L_00080005-03
1 10018U 23848NX  26075.70041667  .00000000  00000+0  00000-0 0  9995
2 10018  85.0000  48.0000 0000000   0.0000 228.0000 15.28598846    16
CTC2_L_00080005-04
1 10019U 23683NM  26075.70041667  .00000000  00000+0  00000-0 0  9993
2 10019  85.0000  48.0000 0000000   0.0000 318.0000 15.28598846    17
CTC2_L_00080006-01
1 10020U 25274YW  26075.70041667  .00000000  00000+0  00000-0 0  9993
2 10020  85.0000  60.0000 0000000   0.0000  60.0000 15.28598846    17
CTC2_L_00080006-02
1 10021U 26525VQ  26075.70041667  .00000000  00000+0  00000-0 0  9994
2 10021  85.0000  60.0000 0000000   0.0000 150.0000 15.28598846    18
CTC2_L_00080006-03
1 10022U 26676KL  26075.70041667  .00000000  00000+0  00000-0 0  9992
2 10022  85.0000  60.0000 0000000   0.0000 240.0000 15.28598846    19
CTC2_L_00080006-04
1 10023U 22419RB  26075.70041667  .00000000  00000+0  00000-0 0  9994
2 10023  85.0000  60.0000 0000000   0.0000 330.0000 15.28598846    10
CTC2_L_00080007-01
1 10024U 26716AN  26075.70041667  .00000000  00000+0  00000-0 0  9999
2 10024  85.0000  72.0000 0000000   0.0000  72.0000 15.28598846    17
CTC2_L_00080007-02
1 10025U 24261WC  26075.70041667  .00000000  00000+0  00000-0 0  9993
2 10025  85.0000  72.0000 0000000   0.0000 162.0000 15.28598846    18
CTC2_L_00080007-03
1 10026U 26751BC  26075.70041667  .00000000  00000+0  00000-0 0  9990
2 10026  85.0000  72.0000 0000000   0.0000 252.0000 15.28598846    19
CTC2_L_00080007-04
1 10027U 24390XC  26075.70041667  .00000000  00000+0  00000-0 0  9998
2 10027  85.0000  72.0000 0000000   0.0000 342.0000 15.28598846    10
CTC2_L_00080008-01
1 10028U 22933UI  26075.70041667  .00000000  00000+0  00000-0 0  9990
2 10028  85.0000  84.0000 0000000   0.0000  84.0000 15.28598846    17
CTC2_L_00080008-02
1 10029U 24765EI  26075.70041667  .00000000  00000+0  00000-0 0  9996
2 10029  85.0000  84.0000 0000000   0.0000 174.0000 15.28598846    18
CTC2_L_00080008-03
1 10030U 24437EO  26075.70041667  .00000000  00000+0  00000-0 0  9994
2 10030  85.0000  84.0000 0000000   0.0000 264.0000 15.28598846    10
CTC2_L_00080008-04
1 10031U 24349VC  26075.70041667  .00000000  00000+0  00000-0 0  9997
2 10031  85.0000  84.0000 0000000   0.0000 354.0000 15.28598846    11
CTC2_L_00080009-01
1 10032U 22484KD  26075.70041667  .00000000  00000+0  00000-0 0  9996
2 10032  85.0000  96.0000 0000000   0.0000  96.0000 15.28598846    18
CTC2_L_00080009-02
1 10033U 26485BS  26075.70041667  .00000000  00000+0  00000-0 0  9992
2 10033  85.0000  96.0000 0000000   0.0000 186.0000 15.28598846    19
CTC2_L_00080009-03
1 10034U 24236H   26075.70041667  .00000000  00000+0  00000-0 0  9995
2 10034  85.0000  96.0000 0000000   0.0000 276.0000 15.28598846    10
CTC2_L_00080009-04
1 10035U 25191UF  26075.70041667  .00000000  00000+0  00000-0 0  9997
2 10035  85.0000  96.0000 0000000   0.0000   6.0000 15.28598846    12
CTC2_L_00080010-01
1 10036U 26301LC  26075.70041667  .00000000  00000+0  00000-0 0  9992
2 10036  85.0000 108.0000 0000000   0.0000 108.0000 15.28598846    10
CTC2_L_00080010-02
1 10037U 22558FC  26075.70041667  .00000000  00000+0  00000-0 0  9993
2 10037  85.0000 108.0000 0000000   0.0000 198.0000 15.28598846    10
CTC2_L_00080010-03
1 10038U 22889GN  26075.70041667  .00000000  00000+0  00000-0 0  9991
2 10038  85.0000 108.0000 0000000   0.0000 288.0000 15.28598846    11
CTC2_L_00080010-04
1 10039U 22557HT  26075.70041667  .00000000  00000+0  00000-0 0  9994
2 10039  85.0000 108.0000 0000000   0.0000  18.0000 15.28598846    13
CTC2_L_00080011-01
1 10040U 22504CR  26075.70041667  .00000000  00000+0  00000-0 0  9998
2 10040  85.0000 120.0000 0000000   0.0000 120.0000 15.28598846    13
CTC2_L_00080011-02
1 10041U 23741PC  26075.70041667  .00000000  00000+0  00000-0 0  9993
2 10041  85.0000 120.0000 0000000   0.0000 210.0000 15.28598846    14
CTC2_L_00080011-03
1 10042U 25878WQ  26075.70041667  .00000000  00000+0  00000-0 0  9997
2 10042  85.0000 120.0000 0000000   0.0000 300.0000 15.28598846    15
CTC2_L_00080011-04
1 10043U 22469WV  26075.70041667  .00000000  00000+0  00000-0 0  9991
2 10043  85.0000 120.0000 0000000   0.0000  30.0000 15.28598846    16
CTC2_L_00080012-01
1 10044U 26939LF  26075.70041667  .00000000  00000+0  00000-0 0  9998
2 10044  85.0000 132.0000 0000000   0.0000 132.0000 15.28598846    13
CTC2_L_00080012-02
1 10045U 22643HS  26075.70041667  .00000000  00000+0  00000-0 0  9997
2 10045  85.0000 132.0000 0000000   0.0000 222.0000 15.28598846    14
CTC2_L_00080012-03
1 10046U 23124KW  26075.70041667  .00000000  00000+0  00000-0 0  9993
2 10046  85.0000 132.0000 0000000   0.0000 312.0000 15.28598846    15
CTC2_L_00080012-04
1 10047U 23733PH  26075.70041667  .00000000  00000+0  00000-0 0  9990
2 10047  85.0000 132.0000 0000000   0.0000  42.0000 15.28598846    16
CTC2_L_00080013-01
1 10048U 26182FQ  26075.70041667  .00000000  00000+0  00000-0 0  9992
2 10048  85.0000 144.0000 0000000   0.0000 144.0000 15.28598846    13
CTC2_L_00080013-02
1 10049U 23339TC  26075.70041667  .00000000  00000+0  00000-0 0  9994
2 10049  85.0000 144.0000 0000000   0.0000 234.0000 15.28598846    14
CTC2_L_00080013-03
1 10050U 24768JJ  26075.70041667  .00000000  00000+0  00000-0 0  9993
2 10050  85.0000 144.0000 0000000   0.0000 324.0000 15.28598846    16
CTC2_L_00080013-04
1 10051U 26453JO  26075.70041667  .00000000  00000+0  00000-0 0  9997
2 10051  85.0000 144.0000 0000000   0.0000  54.0000 15.28598846    17
CTC2_L_00080014-01
1 10052U 24142JZ  26075.70041667  .00000000  00000+0  00000-0 0  9991
2 10052  85.0000 156.0000 0000000   0.0000 156.0000 15.28598846    14
CTC2_L_00080014-02
1 10053U 22700UC  26075.70041667  .00000000  00000+0  00000-0 0  9990
2 10053  85.0000 156.0000 0000000   0.0000 246.0000 15.28598846    15
CTC2_L_00080014-03
1 10054U 26098RN  26075.70041667  .00000000  00000+0  00000-0 0  9995
2 10054  85.0000 156.0000 0000000   0.0000 336.0000 15.28598846    16
CTC2_L_00080014-04
1 10055U 23628TG  26075.70041667  .00000000  00000+0  00000-0 0  9992
2 10055  85.0000 156.0000 0000000   0.0000  66.0000 15.28598846    17
CTC2_L_00080015-01
1 10056U 23775YU  26075.70041667  .00000000  00000+0  00000-0 0  9996
2 10056  85.0000 168.0000 0000000   0.0000 168.0000 15.28598846    14
CTC2_L_00080015-02
1 10057U 26384GL  26075.70041667  .00000000  00000+0  00000-0 0  9996
2 10057  85.0000 168.0000 0000000   0.0000 258.0000 15.28598846    15
CTC2_L_00080015-03
1 10058U 26586HZ  26075.70041667  .00000000  00000+0  00000-0 0  9991
2 10058  85.0000 168.0000 0000000   0.0000 348.0000 15.28598846    16
CTC2_L_00080015-04
1 10059U 26856YJ  26075.70041667  .00000000  00000+0  00000-0 0  9992
2 10059  85.0000 168.0000 0000000   0.0000  78.0000 15.28598846    17
CTC2_L_00080016-01
1 10060U 25310UP  26075.70041667  .00000000  00000+0  00000-0 0  9998
2 10060  85.0000 180.0000 0000000   0.0000 180.0000 15.28598846    17
CTC2_L_00080016-02
1 10061U 26618XG  26075.70041667  .00000000  00000+0  00000-0 0  9991
2 10061  85.0000 180.0000 0000000   0.0000 270.0000 15.28598846    18
